MOLNIYA 2-9             
1 07276U 74026A   17308.12713654  .00000180  00000-0 -11138-2 0  9995
2 07276  62.8313 146.9705 6831861 288.2551  12.5293  2.45095521208020
MOLNIYA 2-10            
1 07376U 74056A   17309.40980861 -.00001420  00000-0  54262-3 0  9991
2 07376  63.1097 281.6940 7272703 293.6840   8.6979  2.01190121316513
MOLNIYA 1-S             
1 07392U 74060A   17308.98234459 -.00000260  00000-0  00000+0 0  9999
2 07392   8.9139 305.8310 0007012 182.6987   2.8146  1.00212492102616
MOLNIYA 1-29            
1 07780U 75036A   17308.48716454 -.00000033  00000-0 -47298-3 0  9992
2 07780  61.6744 110.4179 7398119 275.1461  12.3643  2.00569014311796
MOLNIYA 2-13            
1 08015U 75063A   17309.14553170  .00001941  00000-0  19893-3 0  9999
2 08015  61.5713 109.5046 7484432 273.9126  12.0925  2.00673269310161
MOLNIYA 2-14            
1 08195U 75081A   17308.91539182  .00000801  00000-0  22256-3 0  9990
2 08195  61.7384  78.2058 7489961 279.1748  10.7818  2.00754522308885
MOLNIYA 3-3             
1 08425U 75105A   17305.38093488  .10121611  00000-0  67115+0 0  9998
2 08425  61.1491  91.5117 5234039 276.9077  28.9688  5.29687316307504
MOLNIYA 1-32            
1 08601U 76006A   17308.71005264  .00000355  00000-0 -13295-1 0  9993
2 08601  62.1479 188.8375 7166133 269.7953  15.7495  1.99934779305281
MOLNIYA 2-17            
1 09829U 77010A   17307.78771665  .00000867  00000-0  58583-3 0  9991
2 09829  61.2344 206.5617 7351786 260.5468  17.5746  2.00409168298453
MOLNIYA 1-36            
1 09880U 77021A   17308.08551973 -.00001223  00000-0 -25465-2 0  9993
2 09880  61.6244 175.2753 7283636 269.7606  14.8144  2.00543836195571
MOLNIYA 3-7             
1 09941U 77032A   17308.22891171  .00001267  00000-0  14221-2 0  9990
2 09941  61.2597 178.9937 7376811 265.0666  15.6329  2.00555349294041
MOLNIYA 3-8             
1 10455U 77105A   17308.28714158 -.00001206  00000-0 -53323-2 0  9999
2 10455  62.1669 242.6518 7252911 269.5091  15.1269  2.00661504293310
MOLNIYA 1-40            
1 10925U 78055A   17307.94443878 -.00000172  00000-0 -28683-2 0  9998
2 10925  62.3974 272.7024 7304064 273.8518  13.2939  2.00742237288857
MOLNIYA 3-10            
1 11057U 78095A   17309.42510719  .00334599  13906-4  21947-3 0  9994
2 11057  62.5074 335.8756 6398289 274.3679  20.1461  3.58371048315103
MOLNIYA 1-44            
1 11474U 79070A   17296.42201831  .15834611  92894-5  21815-3 0  9992
2 11474  61.9462 282.6348 0069946  92.1613   7.0055 16.39147440583828
MOLNIYA 3-13            
1 11896U 80063A   17309.23618577  .00000175  00000-0  19591-3 0  9992
2 11896  62.6965  16.9798 7473935 267.7542  13.8559  2.00645755273335
MOLNIYA 1-49            
1 12156U 81009A   17308.87029310 -.00000981  00000-0  00000-0 0  9991
2 12156  64.0146  55.3652 7118151 247.8378  96.7693  2.05703405186817
MOLNIYA 1-52            
1 13012U 81123A   17308.65203704  .00001122  00000-0  23966+0 0  9999
2 13012  64.3195 143.1945 6753614 253.0439  23.6164  2.00773730262744
MOLNIYA 1-53            
1 13070U 82015A   17308.52031924 -.00000079  00000-0 -16465-2 0  9994
2 13070  62.4624 119.5260 7310424 264.4596  25.4060  2.00560956261434
MOLNIYA 3-20            
1 13875U 83015A   17308.19145345 -.00000327  00000-0 -19768+0 0  9996
2 13875  63.7801 207.2338 6737069 261.4242 345.1239  2.00800771189926
MOLNIYA 1-56            
1 13890U 83019A   17309.31040684  .00000627  00000-0  00000+0 0  9992
2 13890  63.3600 235.1530 6915020 263.8313 346.5827  1.99838115252929
MOLNIYA 1-62            
1 15214U 84089A   17306.98088895  .00001476  00000-0  13863-1 0  9994
2 15214  62.9148 256.6266 7197113 263.2773  17.8391  1.97934332210842
MOLNIYA 1-63            
1 15429U 84124A   17308.61415799  .00000586  00000-0  00000-0 0  9990
2 15429  64.1085 337.5951 6939798 272.1162 332.1168  2.00862856240931
MOLNIYA 3-24            
1 15738U 85040A   17309.46259603 -.00000104  00000-0 -13047-1 0  9999
2 15738  64.4874 357.1096 6539219 262.3059 172.7525  2.55630091260831
MOLNIYA 3-27            
1 16393U 85117A   17308.60853799  .00000063  00000-0 -33619-1 0  9993
2 16393  64.7558 260.9082 6588449 271.5866 286.8789  2.12399461238362
MOLNIYA 1-69            
1 17078U 86089A   17309.56016262  .00000942  00000-0 -16838-1 0  9995
2 17078  64.3318   3.2908 7001354 272.9905 152.7221  2.00440848227029
MOLNIYA 3-31            
1 17328U 87008A   17309.48313440 -.00000339  00000-0 -44329-1 0  9991
2 17328  64.1743 306.6324 6951896 269.1681 345.3003  2.00663562222092
MOLNIYA 1-71            
1 18946U 88017A   17308.47766502 -.00000340  00000-0 -19254-1 0  9999
2 18946  63.9310 315.6134 7075406 267.6201 321.5963  2.00589533217271
MOLNIYA 1-75            
1 19807U 89014A   17306.80528587  .00000040  00000-0  18117-1 0  9990
2 19807  63.8090 123.5256 6814710 276.9325  16.0032  2.00557894210249
MOLNIYA 1-80            
1 21118U 91012A   17308.34018069  .00001104  00000-0 -40363-1 0  9990
2 21118  63.2123 166.1622 6858346 291.3704  11.6250  2.05238367196391
MOLNIYA 3-40            
1 21196U 91022A   17306.73586112  .00000951  00000-0 -71360-1 0  9997
2 21196  63.3994 157.1451 6832816 289.5865  12.2061  2.03014447195390
MOLNIYA 1-81            
1 21426U 91043A   17307.69491241  .00000191  00000-0  00000+0 0  9996
2 21426  63.6441 180.1765 6784789 279.7039  15.3670  2.00606968193311
MOLNIYA 3-41            
1 21706U 91065A   17308.10466245 -.00001258  00000-0 -76197-2 0  9994
2 21706  64.4576 355.5278 7066145 273.4880  14.4150  2.04358416192444
MOLNIYA 3-42            
1 22178U 92067A   17308.57424454  .00000078  00000-0  00000-0 0  9993
2 22178  63.8394  69.1235 6893793 286.5781  12.6388  2.20432714 43014
MOLNIYA 1-86            
1 22671U 93035A   17309.49963485  .00000028  00000-0  90169-5 0  9996
2 22671  63.0396 132.5536 4875237 342.2486   5.4232  5.62560646257456
MOLNIYA 1-87            
1 22949U 93079A   17307.73501649  .00000815  00000-0 -24435-2 0  9992
2 22949  62.9447 294.8519 7346901 288.9778   9.2424  2.02843447175072
MOLNIYA 1-88            
1 23420U 94081A   17308.96682302 -.00000044  00000-0 -87854-3 0  9993
2 23420  63.5006 243.3323 6189626 300.6830  12.6861  3.34498223190564
MOLNIYA 3-47            
1 23642U 95042A   17307.26206405 -.00000462  00000-0  38043-2 0  9993
2 23642  62.8585 273.8124 7288602 288.2075   9.7575  2.01924499162962
MOLNIYA 1-90            
1 24960U 97054A   17309.05119309  .00000254  00000-0  13108-3 0  9991
2 24960  62.6387 232.0918 6536434 292.2640  13.1787  3.18669403154373
MOLNIYA 1-91            
1 25485U 98054A   17309.45748485  .00000405  00000-0  74086-4 0  9993
2 25485  61.9162  95.3301 7474921 274.0944  12.1225  2.00542725139964
MOLNIYA 3-50            
1 25847U 99036A   17308.83537637  .00000472  00000-0 -66799-2 0  9997
2 25847  62.1103 227.1112 7218895 267.9045  15.9759  2.00616998134296
